SAUDISAT 1A             
1 26545U 00057A   08107.79868227 -.00000051  00000-0  12203-4 0  9426
2 26545  64.5595 351.3109 0021585 350.7982   9.2731 14.80498448408076
UNISAT                  
1 26547U 00057C   08107.25420777 -.00000037  00000-0  13766-4 0  9624
2 26547  64.5585 341.8167 0022278   7.5053 352.6371 14.82223248408230
SAUDISAT 1B             
1 26549U 00057E   08107.36411935 -.00000007  00000-0  18179-4 0   186
2 26549  64.5603   6.9318 0022272   2.7009 357.4239 14.79356920407721
MOZHAYETS               
1 27560U 02054B   08107.21088010 -.00000037  00000-0  16063-5 0  6413
2 27560  97.9786 324.4681 0044020 100.2786 260.3376 14.54959451284660
SAUDISAT 1C             
1 27607U 02058C   08106.88353068  .00000064  00000-0  31992-4 0  5795
2 27607  64.5575 242.8506 0083348 291.5209  67.7025 14.71345600285808
UNISAT 2                
1 27608U 02058D   08107.73713353 -.00000017  00000-0  18664-4 0  5990
2 27608  64.5593 211.7749 0068671 282.6061  76.7373 14.74338357286522
SAUDISAT 2              
1 28371U 04025F   08108.05164869 -.00000004  00000-0  98027-5 0  3279
2 28371  98.0804 164.1140 0025199 287.6122  72.2328 14.52887634201491
UNISAT 3                
1 28373U 04025H   08107.70937363  .00000064  00000-0  30925-4 0   835
2 28373  98.0721 141.7411 0070610 325.2148  34.4428 14.43262119200628
SSETI EXPRESS (XO-53)   
1 28894U 05043E   08108.16160408  .00000029  00000-0  15849-4 0  1361
2 28894  98.1025   3.4888 0016579 241.2477 118.7064 14.59612051131707
SAUDISAT 3              
1 31118U 07012B   08108.08547711  .00000011  00000-0  10428-4 0  1391
2 31118  98.0528 183.4344 0016055 142.0753 218.1584 14.67986261 53663
